{
  "type": "FeatureCollection",
  "features": [
    {
      "type": "Feature",
      "properties": {
        "norad_id": 58701,
        "name": "TIANMU-1 16",
        "group": "weather",
        "lat": -25.108708807862435,
        "lon": 175.25957764561875,
        "alt_km": 496.37480118319127,
        "timestamp": "2025-12-16T21:38:56.812393+00:00",
        "meta_object_name": "TIANMU-1 16",
        "meta_object_id": "2024-004B",
        "meta_epoch": "2025-12-16T07:34:55.900128",
        "meta_mean_motion": 15.244826,
        "meta_eccentricity": 0.00043482,
        "meta_inclination": 97.4564,
        "meta_ra_of_asc_node": 171.1576,
        "meta_arg_of_pericenter": 280.0852,
        "meta_mean_anomaly": 79.9895,
        "meta_ephemeris_type": 0,
        "meta_classification_type": "U",
        "meta_norad_cat_id": 58701,
        "meta_element_set_no": 999,
        "meta_rev_at_epoch": 10789,
        "meta_bstar": 0.00022646785,
        "meta_mean_motion_dot": 5.493e-05,
        "meta_mean_motion_ddot": 0,
        "tle_line1": "1 58701U 24004B   25350.31592477  .00005493  00000+0  22647-3 0  9998",
        "tle_line2": "2 58701  97.4564 171.1576 0004348 280.0852  79.9895 15.24482600107894"
      },
      "geometry": {
        "type": "Point",
        "coordinates": [
          175.25957764561875,
          -25.108708807862435
        ]
      }
    },
    {
      "type": "Feature",
      "properties": {
        "norad_id": 58702,
        "name": "TIANMU-1 17",
        "group": "weather",
        "lat": 59.03774406931113,
        "lon": 159.5381218751876,
        "alt_km": 488.3505854026471,
        "timestamp": "2025-12-16T21:38:56.812404+00:00",
        "meta_object_name": "TIANMU-1 17",
        "meta_object_id": "2024-004C",
        "meta_epoch": "2025-12-16T08:47:07.033632",
        "meta_mean_motion": 15.24527274,
        "meta_eccentricity": 0.00035621,
        "meta_inclination": 97.4598,
        "meta_ra_of_asc_node": 171.6194,
        "meta_arg_of_pericenter": 283.224,
        "meta_mean_anomaly": 76.86,
        "meta_ephemeris_type": 0,
        "meta_classification_type": "U",
        "meta_norad_cat_id": 58702,
        "meta_element_set_no": 999,
        "meta_rev_at_epoch": 10789,
        "meta_bstar": 0.0002152057,
        "meta_mean_motion_dot": 5.223e-05,
        "meta_mean_motion_ddot": 0,
        "tle_line1": "1 58702U 24004C   25350.36605363  .00005223  00000+0  21521-3 0  9994",
        "tle_line2": "2 58702  97.4598 171.6194 0003562 283.2240  76.8600 15.24527274107893"
      },
      "geometry": {
        "type": "Point",
        "coordinates": [
          159.5381218751876,
          59.03774406931113
        ]
      }
    },
    {
      "type": "Feature",
      "properties": {
        "norad_id": 58703,
        "name": "TIANMU-1 18",
        "group": "weather",
        "lat": 28.44862110086519,
        "lon": -3.5787320751605054,
        "alt_km": 492.30573945468495,
        "timestamp": "2025-12-16T21:38:56.812420+00:00",
        "meta_object_name": "TIANMU-1 18",
        "meta_object_id": "2024-004D",
        "meta_epoch": "2025-12-16T08:23:08.243808",
        "meta_mean_motion": 15.24512778,
        "meta_eccentricity": 0.00029002,
        "meta_inclination": 97.4616,
        "meta_ra_of_asc_node": 171.799,
        "meta_arg_of_pericenter": 282.6632,
        "meta_mean_anomaly": 77.4281,
        "meta_ephemeris_type": 0,
        "meta_classification_type": "U",
        "meta_norad_cat_id": 58703,
        "meta_element_set_no": 999,
        "meta_rev_at_epoch": 10789,
        "meta_bstar": 0.00020618067,
        "meta_mean_motion_dot": 4.998e-05,
        "meta_mean_motion_ddot": 0,
        "tle_line1": "1 58703U 24004D   25350.34940097  .00004998  00000+0  20618-3 0  9993",
        "tle_line2": "2 58703  97.4616 171.7990 0002900 282.6632  77.4281 15.24512778107898"
      },
      "geometry": {
        "type": "Point",
        "coordinates": [
          -3.5787320751605054,
          28.44862110086519
        ]
      }
    },
    {
      "type": "Feature",
      "properties": {
        "norad_id": 58990,
        "name": "INSAT-3DS",
        "group": "weather",
        "lat": 0.02699350334288357,
        "lon": 132.5966198675965,
        "alt_km": 35789.331912191614,
        "timestamp": "2025-12-16T21:38:56.812434+00:00",
        "meta_object_name": "INSAT-3DS",
        "meta_object_id": "2024-033A",
        "meta_epoch": "2025-12-16T03:28:27.148224",
        "meta_mean_motion": 1.00272657,
        "meta_eccentricity": 0.00011426,
        "meta_inclination": 0.0465,
        "meta_ra_of_asc_node": 121.3166,
        "meta_arg_of_pericenter": 147.119,
        "meta_mean_anomaly": 310.8097,
        "meta_ephemeris_type": 0,
        "meta_classification_type": "U",
        "meta_norad_cat_id": 58990,
        "meta_element_set_no": 999,
        "meta_rev_at_epoch": 4523,
        "meta_bstar": 0,
        "meta_mean_motion_dot": -1.33e-06,
        "meta_mean_motion_ddot": 0,
        "tle_line1": "1 58990U 24033A   25350.14475866 -.00000133  00000+0  00000+0 0  9995",
        "tle_line2": "2 58990   0.0465 121.3166 0001142 147.1190 310.8097  1.00272657 45231"
      },
      "geometry": {
        "type": "Point",
        "coordinates": [
          132.5966198675965,
          0.02699350334288357
        ]
      }
    },
    {
      "type": "Feature",
      "properties": {
        "norad_id": 59051,
        "name": "METEOR-M2 4",
        "group": "weather",
        "lat": -57.65862157007282,
        "lon": 113.7897592923658,
        "alt_km": 825.813309979183,
        "timestamp": "2025-12-16T21:38:56.812445+00:00",
        "meta_object_name": "METEOR-M2 4",
        "meta_object_id": "2024-039A",
        "meta_epoch": "2025-12-16T08:42:44.488224",
        "meta_mean_motion": 14.22401923,
        "meta_eccentricity": 0.00068412,
        "meta_inclination": 98.677,
        "meta_ra_of_asc_node": 307.2151,
        "meta_arg_of_pericenter": 348.1311,
        "meta_mean_anomaly": 11.9704,
        "meta_ephemeris_type": 0,
        "meta_classification_type": "U",
        "meta_norad_cat_id": 59051,
        "meta_element_set_no": 999,
        "meta_rev_at_epoch": 9327,
        "meta_bstar": 3.0267864e-05,
        "meta_mean_motion_dot": 2.4e-07,
        "meta_mean_motion_ddot": 0,
        "tle_line1": "1 59051U 24039A   25350.36301491  .00000024  00000+0  30268-4 0  9998",
        "tle_line2": "2 59051  98.6770 307.2151 0006841 348.1311  11.9704 14.22401923 93279"
      },
      "geometry": {
        "type": "Point",
        "coordinates": [
          113.7897592923658,
          -57.65862157007282
        ]
      }
    },
    {
      "type": "Feature",
      "properties": {
        "norad_id": 60133,
        "name": "GOES 19",
        "group": "weather",
        "lat": 0.0005664226386285681,
        "lon": -24.673161427940798,
        "alt_km": 35781.727976643946,
        "timestamp": "2025-12-16T21:38:56.812456+00:00",
        "meta_object_name": "GOES 19",
        "meta_object_id": "2024-119A",
        "meta_epoch": "2025-12-16T06:08:56.774688",
        "meta_mean_motion": 1.00272265,
        "meta_eccentricity": 0.00010563,
        "meta_inclination": 0.0184,
        "meta_ra_of_asc_node": 164.8889,
        "meta_arg_of_pericenter": 155.215,
        "meta_mean_anomaly": 142.094,
        "meta_ephemeris_type": 0,
        "meta_classification_type": "U",
        "meta_norad_cat_id": 60133,
        "meta_element_set_no": 999,
        "meta_rev_at_epoch": 513,
        "meta_bstar": 0,
        "meta_mean_motion_dot": -2.25e-06,
        "meta_mean_motion_ddot": 0,
        "tle_line1": "1 60133U 24119A   25350.25621267 -.00000225  00000+0  00000+0 0  9994",
        "tle_line2": "2 60133   0.0184 164.8889 0001056 155.2150 142.0940  1.00272265  5137"
      },
      "geometry": {
        "type": "Point",
        "coordinates": [
          -24.673161427940798,
          0.0005664226386285681
        ]
      }
    },
    {
      "type": "Feature",
      "properties": {
        "norad_id": 65815,
        "name": "FENGYUN 3H",
        "group": "weather",
        "lat": 76.98716210968607,
        "lon": -110.8495991583294,
        "alt_km": 817.9465070818087,
        "timestamp": "2025-12-16T21:38:56.812467+00:00",
        "meta_object_name": "FENGYUN 3H",
        "meta_object_id": "2025-219A",
        "meta_epoch": "2025-12-16T07:44:34.564992",
        "meta_mean_motion": 14.19905788,
        "meta_eccentricity": 6.629e-05,
        "meta_inclination": 98.6588,
        "meta_ra_of_asc_node": 289.8353,
        "meta_arg_of_pericenter": 99.8632,
        "meta_mean_anomaly": 260.262,
        "meta_ephemeris_type": 0,
        "meta_classification_type": "U",
        "meta_norad_cat_id": 65815,
        "meta_element_set_no": 999,
        "meta_rev_at_epoch": 1143,
        "meta_bstar": 5.2929853e-05,
        "meta_mean_motion_dot": 6.9e-07,
        "meta_mean_motion_ddot": 0,
        "tle_line1": "1 65815U 25219A   25350.32262228  .00000069  00000+0  52930-4 0  9993",
        "tle_line2": "2 65815  98.6588 289.8353 0000662  99.8632 260.2620 14.19905788 11439"
      },
      "geometry": {
        "type": "Point",
        "coordinates": [
          -110.8495991583294,
          76.98716210968607
        ]
      }
    }
  ]
}